{"type": "FeatureCollection", "features": [{"type": "Feature", "properties": {"norad_id": 66549, "name": "SHIJIAN-28 (SJ-28)", "group": "last-30-days", "lat": 2.45534607425052, "lon": 65.83227654385145, "alt_km": 35782.52878188028, "timestamp": "2025-12-20T14:38:00.686790+00:00", "meta": {"OBJECT_NAME": "SHIJIAN-28 (SJ-28)", "OBJECT_ID": "2025-277A", "EPOCH": "2025-12-20T05:13:32.109600", "MEAN_MOTION": 1.00268208, "ECCENTRICITY": 0.00010503, "INCLINATION": 5.0003, "RA_OF_ASC_NODE": 274.84, "ARG_OF_PERICENTER": 136.6853, "MEAN_ANOMALY": 232.7302, "EPHEMERIS_TYPE": 0, "CLASSIFICATION_TYPE": "U", "NORAD_CAT_ID": 66549, "ELEMENT_SET_NO": 999, "REV_AT_EPOCH": 36, "BSTAR": 0, "MEAN_MOTION_DOT": -3.31e-06, "MEAN_MOTION_DDOT": 0}, "tle": {"line1": "1 66549U 25277A   25354.21773275 -.00000331  00000+0  00000+0 0  9992", "line2": "2 66549   5.0003 274.8400 0001050 136.6853 232.7302  1.00268208   368"}}, "geometry": {"type": "Point", "coordinates": [65.83227654385145, 2.45534607425052]}}, {"type": "Feature", "properties": {"norad_id": 66550, "name": "CZ-7A R/B", "group": "last-30-days", "lat": 13.81437689697581, "lon": 11.968411008838713, "alt_km": 4696.884185508151, "timestamp": "2025-12-20T14:38:00.686839+00:00", "meta": {"OBJECT_NAME": "CZ-7A R/B", "OBJECT_ID": "2025-277B", "EPOCH": "2025-12-18T08:54:45.891072", "MEAN_MOTION": 2.8884184, "ECCENTRICITY": 0.6879086, "INCLINATION": 14.3533, "RA_OF_ASC_NODE": 266.9093, "ARG_OF_PERICENTER": 194.6822, "MEAN_ANOMALY": 125.1782, "EPHEMERIS_TYPE": 0, "CLASSIFICATION_TYPE": "U", "NORAD_CAT_ID": 66550, "ELEMENT_SET_NO": 999, "REV_AT_EPOCH": 50, "BSTAR": 0.0030391, "MEAN_MOTION_DOT": 0.0266328, "MEAN_MOTION_DDOT": 1.4058e-06}, "tle": {"line1": "1 66550U 25277B   25352.37136448  .02663280  14058-5  30391-2 0  9996", "line2": "2 66550  14.3533 266.9093 6879086 194.6822 125.1782  2.88841840   508"}}, "geometry": {"type": "Point", "coordinates": [11.968411008838713, 13.81437689697581]}}, {"type": "Feature", "properties": {"norad_id": 66554, "name": "GLOBAL-33", "group": "last-30-days", "lat": -31.868646596610613, "lon": -32.1058778968003, "alt_km": 476.0748868300716, "timestamp": "2025-12-20T14:38:00.686868+00:00", "meta": {"OBJECT_NAME": "GLOBAL-33", "OBJECT_ID": "2025-267A", "EPOCH": "2025-12-19T09:07:28.398720", "MEAN_MOTION": 15.31600421, "ECCENTRICITY": 0.00036222, "INCLINATION": 42.0217, "RA_OF_ASC_NODE": 18.6576, "ARG_OF_PERICENTER": 135.9211, "MEAN_ANOMALY": 224.1916, "EPHEMERIS_TYPE": 0, "CLASSIFICATION_TYPE": "U", "NORAD_CAT_ID": 66554, "ELEMENT_SET_NO": 999, "REV_AT_EPOCH": 442, "BSTAR": 0.00025464031, "MEAN_MOTION_DOT": 7.695e-05, "MEAN_MOTION_DDOT": 0}, "tle": {"line1": "1 66554U 25267A   25353.38018980  .00007695  00000+0  25464-3 0  9993", "line2": "2 66554  42.0217  18.6576 0003622 135.9211 224.1916 15.31600421  4420"}}, "geometry": {"type": "Point", "coordinates": [-32.1058778968003, -31.868646596610613]}}, {"type": "Feature", "properties": {"norad_id": 66555, "name": "ELECTRON KICK STAGE R/B", "group": "last-30-days", "lat": 31.940330214562703, "lon": 55.12286377731582, "alt_km": 459.15649797175047, "timestamp": "2025-12-20T14:38:00.686881+00:00", "meta": {"OBJECT_NAME": "ELECTRON KICK STAGE R/B", "OBJECT_ID": "2025-267B", "EPOCH": "2025-12-19T18:04:54.008832", "MEAN_MOTION": 15.33128579, "ECCENTRICITY": 0.00068354, "INCLINATION": 42.0196, "RA_OF_ASC_NODE": 16.2602, "ARG_OF_PERICENTER": 110.4323, "MEAN_ANOMALY": 249.7249, "EPHEMERIS_TYPE": 0, "CLASSIFICATION_TYPE": "U", "NORAD_CAT_ID": 66555, "ELEMENT_SET_NO": 999, "REV_AT_EPOCH": 448, "BSTAR": 0.00053717266, "MEAN_MOTION_DOT": 0.00017365, "MEAN_MOTION_DDOT": 0}, "tle": {"line1": "1 66555U 25267B   25353.75340288  .00017365  00000+0  53717-3 0  9991", "line2": "2 66555  42.0196  16.2602 0006835 110.4323 249.7249 15.33128579  4481"}}, "geometry": {"type": "Point", "coordinates": [55.12286377731582, 31.940330214562703]}}, {"type": "Feature", "properties": {"norad_id": 66557, "name": "STARLINK-35699", "group": "last-30-days", "lat": 11.444367327862551, "lon": -117.37689227146329, "alt_km": 413.2290747347288, "timestamp": "2025-12-20T14:38:00.686893+00:00", "meta": {"OBJECT_NAME": "STARLINK-35699", "OBJECT_ID": "2025-268A", "EPOCH": "2025-12-19T13:12:05.651424", "MEAN_MOTION": 15.50689057, "ECCENTRICITY": 0.0002216, "INCLINATION": 43.0009, "RA_OF_ASC_NODE": 81.3713, "ARG_OF_PERICENTER": 38.1148, "MEAN_ANOMALY": 321.9869, "EPHEMERIS_TYPE": 0, "CLASSIFICATION_TYPE": "U", "NORAD_CAT_ID": 66557, "ELEMENT_SET_NO": 999, "REV_AT_EPOCH": 568, "BSTAR": 0.00095065, "MEAN_MOTION_DOT": 0.00056051, "MEAN_MOTION_DDOT": 0}, "tle": {"line1": "1 66557U 25268A   25353.55006541  .00056051  00000+0  95065-3 0  9990", "line2": "2 66557  43.0009  81.3713 0002216  38.1148 321.9869 15.50689057  5689"}}, "geometry": {"type": "Point", "coordinates": [-117.37689227146329, 11.444367327862551]}}, {"type": "Feature", "properties": {"norad_id": 66558, "name": "STARLINK-35695", "group": "last-30-days", "lat": 6.687842284929957, "lon": -112.073993823173, "alt_km": 406.6578274907133, "timestamp": "2025-12-20T14:38:00.686905+00:00", "meta": {"OBJECT_NAME": "STARLINK-35695", "OBJECT_ID": "2025-268B", "EPOCH": "2025-12-19T22:27:36.770400", "MEAN_MOTION": 15.52081685, "ECCENTRICITY": 0.00038135, "INCLINATION": 43.0033, "RA_OF_ASC_NODE": 79.1058, "ARG_OF_PERICENTER": 177.3129, "MEAN_ANOMALY": 182.7753, "EPHEMERIS_TYPE": 0, "CLASSIFICATION_TYPE": "U", "NORAD_CAT_ID": 66558, "ELEMENT_SET_NO": 999, "REV_AT_EPOCH": 574, "BSTAR": 0.0013694324, "MEAN_MOTION_DOT": 0.00085374, "MEAN_MOTION_DDOT": 0}, "tle": {"line1": "1 66558U 25268B   25353.93584225  .00085374  00000+0  13694-2 0  9990", "line2": "2 66558  43.0033  79.1058 0003813 177.3129 182.7753 15.52081685  5740"}}, "geometry": {"type": "Point", "coordinates": [-112.073993823173, 6.687842284929957]}}, {"type": "Feature", "properties": {"norad_id": 66559, "name": "STARLINK-35419", "group": "last-30-days", "lat": 8.975045085886183, "lon": -114.59434390212202, "alt_km": 407.78063117007514, "timestamp": "2025-12-20T14:38:00.686916+00:00", "meta": {"OBJECT_NAME": "STARLINK-35419", "OBJECT_ID": "2025-268C", "EPOCH": "2025-12-19T22:27:34.328736", "MEAN_MOTION": 15.50718782, "ECCENTRICITY": 0.0008647, "INCLINATION": 42.9997, "RA_OF_ASC_NODE": 79.1074, "ARG_OF_PERICENTER": 182.2061, "MEAN_ANOMALY": 177.8763, "EPHEMERIS_TYPE": 0, "CLASSIFICATION_TYPE": "U", "NORAD_CAT_ID": 66559, "ELEMENT_SET_NO": 999, "REV_AT_EPOCH": 574, "BSTAR": -0.00067411, "MEAN_MOTION_DOT": -0.00039954, "MEAN_MOTION_DDOT": 0}, "tle": {"line1": "1 66559U 25268C   25353.93581399 -.00039954  00000+0 -67411-3 0  9992", "line2": "2 66559  42.9997  79.1074 0008647 182.2061 177.8763 15.50718782  5745"}}, "geometry": {"type": "Point", "coordinates": [-114.59434390212202, 8.975045085886183]}}, {"type": "Feature", "properties": {"norad_id": 66560, "name": "STARLINK-35411", "group": "last-30-days", "lat": 2.079559194728406, "lon": -107.09239634647801, "alt_km": 406.9674854369923, "timestamp": "2025-12-20T14:38:00.686927+00:00", "meta": {"OBJECT_NAME": "STARLINK-35411", "OBJECT_ID": "2025-268D", "EPOCH": "2025-12-20T03:04:25.225536", "MEAN_MOTION": 15.5324985, "ECCENTRICITY": 0.00016382, "INCLINATION": 43.0006, "RA_OF_ASC_NODE": 77.9707, "ARG_OF_PERICENTER": 345.6935, "MEAN_ANOMALY": 14.388, "EPHEMERIS_TYPE": 0, "CLASSIFICATION_TYPE": "U", "NORAD_CAT_ID": 66560, "ELEMENT_SET_NO": 999, "REV_AT_EPOCH": 577, "BSTAR": 0.0045978527, "MEAN_MOTION_DOT": 0.00308503, "MEAN_MOTION_DDOT": 0}, "tle": {"line1": "1 66560U 25268D   25354.12806974  .00308503  00000+0  45979-2 0  9996", "line2": "2 66560  43.0006  77.9707 0001638 345.6935  14.3880 15.53249850  5773"}}, "geometry": {"type": "Point", "coordinates": [-107.09239634647801, 2.079559194728406]}}, {"type": "Feature", "properties": {"norad_id": 66561, "name": "STARLINK-35305", "group": "last-30-days", "lat": -2.234603624423902, "lon": -102.47811596727652, "alt_km": 399.2916931314503, "timestamp": "2025-12-20T14:38:00.686942+00:00", "meta": {"OBJECT_NAME": "STARLINK-35305", "OBJECT_ID": "2025-268E", "EPOCH": "2025-12-20T06:00:02.999808", "MEAN_MOTION": 15.54167626, "ECCENTRICITY": 0.00017643, "INCLINATION": 43.0005, "RA_OF_ASC_NODE": 77.2407, "ARG_OF_PERICENTER": 290.9175, "MEAN_ANOMALY": 36.1585, "EPHEMERIS_TYPE": 0, "CLASSIFICATION_TYPE": "U", "NORAD_CAT_ID": 66561, "ELEMENT_SET_NO": 999, "REV_AT_EPOCH": 582, "BSTAR": 0.038233257, "MEAN_MOTION_DOT": 0.02872237, "MEAN_MOTION_DDOT": 0}, "tle": {"line1": "1 66561U 25268E   25354.25003472  .02872237  00000+0  38233-1 0  9999", "line2": "2 66561  43.0005  77.2407 0001764 290.9175  36.1585 15.54167626  5822"}}, "geometry": {"type": "Point", "coordinates": [-102.47811596727652, -2.234603624423902]}}, {"type": "Feature", "properties": {"norad_id": 66562, "name": "STARLINK-35579", "group": "last-30-days", "lat": -0.9297476730223294, "lon": -103.87525415324633, "alt_km": 398.9378045906187, "timestamp": "2025-12-20T14:38:00.686953+00:00", "meta": {"OBJECT_NAME": "STARLINK-35579", "OBJECT_ID": "2025-268F", "EPOCH": "2025-12-20T06:00:02.999808", "MEAN_MOTION": 15.54160599, "ECCENTRICITY": 0.00013681, "INCLINATION": 43.0005, "RA_OF_ASC_NODE": 77.2456, "ARG_OF_PERICENTER": 279.1399, "MEAN_ANOMALY": 46.0218, "EPHEMERIS_TYPE": 0, "CLASSIFICATION_TYPE": "U", "NORAD_CAT_ID": 66562, "ELEMENT_SET_NO": 999, "REV_AT_EPOCH": 587, "BSTAR": 0.038393905, "MEAN_MOTION_DOT": 0.02885378, "MEAN_MOTION_DDOT": 0}, "tle": {"line1": "1 66562U 25268F   25354.25003472  .02885378  00000+0  38394-1 0  9998", "line2": "2 66562  43.0005  77.2456 0001368 279.1399  46.0218 15.54160599  5874"}}, "geometry": {"type": "Point", "coordinates": [-103.87525415324633, -0.9297476730223294]}}]}